NORAD_CAT_ID,OBJECT_NAME,OBJECT_TYPE,EPOCH,MEAN_MOTION,ECCENTRICITY,INCLINATION,RA_OF_ASC_NODE,ARG_OF_PERICENTER,MEAN_ANOMALY,BSTAR,MEAN_MOTION_DOT,MEAN_MOTION_DDOT,TLE_LINE0,TLE_LINE1,TLE_LINE2,SEMIMAJOR_AXIS,PERIOD,APOGEE,PERIGEE,DECAYED
53795.0,STARLINK-4742,PAYLOAD,2022-10-23 08:00:01,15.73273625,0.0001425,53.2169,57.8839,73.9411,225.483,6.995e-05,9.238e-05,0.0,0 STARLINK-4742,1 53795U 22111Y   22296.33335648  .00009238  00000-0  69950-4 0  9997,2 53795  53.2169  57.8839 0001425  73.9411 225.4830 15.73273625  6588,6727.685,91.529,350.509,348.592,0.0
53795.0,STARLINK-4742,PAYLOAD,2022-10-23 14:00:01,15.73223556,0.0001119,53.2167,56.6485,58.7184,217.3489,-0.00038492,-0.00054346,0.0,0 STARLINK-4742,1 53795U 22111Y   22296.58334491 -.00054346  00000-0 -38492-3 0  9997,2 53795  53.2167  56.6485 0001119  58.7184 217.3489 15.73223556  1301,6727.828,91.532,350.446,348.94,0.0
53795.0,STARLINK-4742,PAYLOAD,2022-10-23 22:00:00,15.73228511,0.0001146,53.2164,54.9984,48.8305,316.1546,-0.00044812,-0.00063116,0.0,0 STARLINK-4742,1 53795U 22111Y   22296.91667824 -.00063116  00000-0 -44812-3 0  9991,2 53795  53.2164  54.9984 0001146  48.8305 316.1546 15.73228511  1306,6727.814,91.532,350.45,348.908,0.0
53795.0,STARLINK-4742,PAYLOAD,2022-10-24 06:00:00,15.73271349,0.0001142,53.2168,53.3467,62.3576,31.5672,-0.0044115,-0.00580567,0.0,0 STARLINK-4742,1 53795U 22111Y   22297.25001157 -.00580567  00000-0 -44115-2 0  9999,2 53795  53.2168  53.3467 0001142  62.3576  31.5672 15.73271349  6733,6727.691999999999,91.529,350.325,348.788,0.0
53795.0,STARLINK-4742,PAYLOAD,2022-10-24 14:00:01,15.7300116,0.0001272,53.2172,51.6991,73.6583,109.0127,-0.0088782999999999,-0.01105721,0.0,0 STARLINK-4742,1 53795U 22111Y   22297.58334491 -.01105721  00000-0 -88783-2 0  9990,2 53795  53.2172  51.6991 0001272  73.6583 109.0127 15.73001160  1304,6728.462,91.545,351.18300000000005,349.471,0.0
53795.0,STARLINK-4742,PAYLOAD,2022-10-24 22:00:00,15.72225501,0.0001220999999999,53.2169,50.0511,49.9161,220.9427,-0.0096735,-0.01158633,0.0,0 STARLINK-4742,1 53795U 22111Y   22297.91667824 -.01158633  00000-0 -96735-2 0  9992,2 53795  53.2169  50.0511 0001221  49.9161 220.9427 15.72225501  1305,6730.675,91.59,353.362,351.718,0.0
53795.0,STARLINK-4742,PAYLOAD,2022-10-25 06:00:00,15.71384018,0.0001111,53.2174,48.403,54.0095,304.0895,-0.009662,-0.01120874,0.0,0 STARLINK-4742,1 53795U 22111Y   22298.25001157 -.01120874  00000-0 -96620-2 0  9990,2 53795  53.2174  48.4030 0001111  54.0095 304.0895 15.71384018  6888,6733.078,91.639,355.691,354.195,0.0
53795.0,STARLINK-4742,PAYLOAD,2022-10-25 14:00:01,15.70573109,0.000121,53.2176,46.761,63.2439,21.1011,-0.0100299999999999,-0.01123928,0.0,0 STARLINK-4742,1 53795U 22111Y   22298.58334491 -.01123928  00000-0 -10030-1 0  9999,2 53795  53.2176  46.7610 0001210  63.2439  21.1011 15.70573109  1308,6735.395,91.686,358.075,356.445,0.0
53795.0,STARLINK-4742,PAYLOAD,2022-10-25 22:00:01,15.69767328,0.0001369,53.2171,45.1185,51.4462,118.2317,-0.01049,-0.01135004,0.0,0 STARLINK-4742,1 53795U 22111Y   22298.91668981 -.01135004  00000-0 -10490-1 0  9998,2 53795  53.2171  45.1185 0001369  51.4462 118.2317 15.69767328  1306,6737.7,91.733,360.487,358.642,0.0
53795.0,STARLINK-4742,PAYLOAD,2022-10-26 14:00:01,15.68136264,0.0001165,53.2175,41.8407,63.6445,273.577,-0.011167,-0.01148203,0.0,0 STARLINK-4742,1 53795U 22111Y   22299.58334491 -.01148203  00000-0 -11167-1 0  9995,2 53795  53.2175  41.8407 0001165  63.6445 273.5770 15.68136264  1306,6742.371,91.829,365.021,363.45,0.0
53795.0,STARLINK-4742,PAYLOAD,2022-10-26 22:00:00,15.67316197,0.0001137,53.2172,40.2038,57.5913,1.9703,-0.011439,-0.01138183,0.0,0 STARLINK-4742,1 53795U 22111Y   22299.91667824 -.01138183  00000-0 -11439-1 0  9999,2 53795  53.2172  40.2038 0001137  57.5913   1.9703 15.67316197  7159,6744.723000000001,91.877,367.354,365.821,0.0
53795.0,STARLINK-4742,PAYLOAD,2022-10-27 14:00:01,15.65714884,0.0001354,53.2177,36.9382,60.4487,160.9057,-0.012625,-0.01173301,0.0,0 STARLINK-4742,1 53795U 22111Y   22300.58335648 -.01173301  00000-0 -12625-1 0  9990,2 53795  53.2177  36.9382 0001354  60.4487 160.9057 15.65714884  1300,6749.321,91.971,372.099,370.272,0.0
53795.0,STARLINK-4742,PAYLOAD,2022-10-27 22:00:00,15.64884605,0.0001406999999999,53.2173,35.3073,41.1112,259.5901,-0.012784,-0.0115132,0.0,0 STARLINK-4742,1 53795U 22111Y   22300.91667824 -.01151320  00000-0 -12784-1 0  9994,2 53795  53.2173  35.3073 0001407  41.1112 259.5901 15.64884605  1307,6751.708000000001,92.02,374.523,372.62300000000016,0.0
53795.0,STARLINK-4742,PAYLOAD,2022-10-28 14:00:01,15.63249356,0.0001478,53.2177,32.0535,51.1258,45.5171,-0.013489,-0.01139425,0.0,0 STARLINK-4742,1 53795U 22111Y   22301.58335648 -.01139425  00000-0 -13489-1 0  9999,2 53795  53.2177  32.0535 0001478  51.1258  45.5171 15.63249356  1307,6756.415,92.116,379.279,377.282,0.0
53795.0,STARLINK-4742,PAYLOAD,2022-10-28 22:00:01,15.62441336,0.0001655,53.2171,30.4283,40.0099,133.1013,-0.014039,-0.01147867,0.0,0 STARLINK-4742,1 53795U 22111Y   22301.91668981 -.01147867  00000-0 -14039-1 0  9996,2 53795  53.2171  30.4283 0001655  40.0099 133.1013 15.62441336  1300,6758.744000000002,92.163,381.728,379.491,0.0
53795.0,STARLINK-4742,PAYLOAD,2022-10-29 12:00:00,15.61023314,0.0001409999999999,53.2174,27.5913,51.018,163.4926,-0.0149139999999999,-0.01153014,0.0,0 STARLINK-4742,1 53795U 22111Y   22302.50001157 -.01153014  00000-0 -14914-1 0  9991,2 53795  53.2174  27.5913 0001410  51.0180 163.4926 15.61023314  1302,6762.837,92.247,385.655,383.74800000000016,0.0
53795.0,STARLINK-4742,PAYLOAD,2022-10-29 22:00:01,15.59992065,0.0001516,53.2173,25.567,34.9275,1.7297,-0.015256,-0.01135209,0.0,0 STARLINK-4742,1 53795U 22111Y   22302.91668981 -.01135209  00000-0 -15256-1 0  9996,2 53795  53.2173  25.5670 0001516  34.9275   1.7297 15.59992065  1301,6765.816999999999,92.308,388.708,386.656,0.0
53795.0,STARLINK-4742,PAYLOAD,2022-10-30 00:00:00,15.59786381,0.000162,53.2175,25.162,39.4624,105.3622,-0.015314,-0.01131013,0.0,0 STARLINK-4742,1 53795U 22111Y   22303.00001157 -.01131013  00000-0 -15314-1 0  9997,2 53795  53.2175  25.1620 0001620  39.4624 105.3622 15.59786381  7635,6766.4119999999975,92.32,389.37300000000016,387.181,0.0
53795.0,STARLINK-4742,PAYLOAD,2022-10-30 14:00:01,15.58363927,0.0001578,53.2177,22.3373,47.3904,133.3402,-0.016198,-0.01132749,0.0,0 STARLINK-4742,1 53795U 22111Y   22303.58334491 -.01132749  00000-0 -16198-1 0  9998,2 53795  53.2177  22.3373 0001578  47.3904 133.3402 15.58363927  1303,6770.529,92.405,393.462,391.325,0.0
53795.0,STARLINK-4742,PAYLOAD,2022-10-30 22:00:01,15.57555264,0.0001563,53.2174,20.7235,38.3577,213.0397,-0.01684,-0.01141187,0.0,0 STARLINK-4742,1 53795U 22111Y   22303.91668981 -.01141187  00000-0 -16840-1 0  9999,2 53795  53.2174  20.7235 0001563  38.3577 213.0397 15.57555264  1304,6772.871999999999,92.453,395.796,393.67800000000005,0.0
53795.0,STARLINK-4742,PAYLOAD,2022-10-31 14:00:01,15.55927163,0.0001606,53.2176,17.5059,37.9499,351.6538,-0.0178669999999999,-0.01139197,0.0,0 STARLINK-4742,1 53795U 22111Y   22304.58334491 -.01139197  00000-0 -17867-1 0  9997,2 53795  53.2176  17.5059 0001606  37.9499 351.6538 15.55927163  1305,6777.596,92.549,400.549,398.372,0.0
53795.0,STARLINK-4742,PAYLOAD,2022-10-31 22:00:01,15.55139524,0.0001588,53.2172,15.8979,23.9162,73.4101,-0.019028,-0.01174306,0.0,0 STARLINK-4742,1 53795U 22111Y   22304.91668981 -.01174306  00000-0 -19028-1 0  9990,2 53795  53.2172  15.8979 0001588  23.9162  73.4101 15.55139524  7930,6779.884,92.596,402.826,400.672,0.0
53795.0,STARLINK-4742,PAYLOAD,2022-11-01 14:00:01,15.53514059,0.0001028,53.2174,12.6921,40.4145,189.2496,-0.02023,-0.01175518,0.0,0 STARLINK-4742,1 53795U 22111Y   22305.58334491 -.01175518  00000-0 -20230-1 0  9993,2 53795  53.2174  12.6921 0001028  40.4145 189.2496 15.53514059  8031,6784.613,92.693,407.175,405.78,0.0
53795.0,STARLINK-4742,PAYLOAD,2022-11-01 22:00:00,15.52672681,0.0001294,53.2174,11.0897,52.5012,241.9134,-0.020151,-0.01139465,0.0,0 STARLINK-4742,1 53795U 22111Y   22305.91667824 -.01139465  00000-0 -20151-1 0  9992,2 53795  53.2174  11.0897 0001294  52.5012 241.9134 15.52672681  1301,6787.063,92.743,409.807,408.05,0.0
53795.0,STARLINK-4742,PAYLOAD,2022-11-02 06:00:00,15.51853838,0.0001269,53.2176,9.4903,50.9021,307.2722,-0.020576,-0.01130395,0.0,0 STARLINK-4742,1 53795U 22111Y   22306.25001157 -.01130395  00000-0 -20576-1 0  9995,2 53795  53.2176   9.4903 0001269  50.9021 307.2722 15.51853838  8137,6789.451,92.792,412.177,410.454,0.0
53795.0,STARLINK-4742,PAYLOAD,2022-11-02 14:00:01,15.50989058,0.0001364,53.2176,7.8953,51.8127,9.1521,-0.018959,-0.01020141,0.0,0 STARLINK-4742,1 53795U 22111Y   22306.58334491 -.01020141  00000-0 -18959-1 0  9990,2 53795  53.2176   7.8953 0001364  51.8127   9.1521 15.50989058  1307,6791.974,92.844,414.765,412.913,0.0
53795.0,STARLINK-4742,PAYLOAD,2022-11-02 22:00:00,15.50147062,0.000121,53.2176,6.2988,70.7519,52.0156,-0.0067037999999999,-0.00367032,0.0,0 STARLINK-4742,1 53795U 22111Y   22306.91667824 -.00367032  00000-0 -67038-2 0  9991,2 53795  53.2176   6.2988 0001210  70.7519  52.0156 15.50147062  8245,6794.433000000001,92.894,417.12,415.476,0.0
53795.0,STARLINK-4742,PAYLOAD,2022-11-03 08:00:01,15.49977917,0.0001595,53.217,4.3115,50.3614,238.6772,-0.0015195,-0.00086034,0.0,0 STARLINK-4742,1 53795U 22111Y   22307.33334491 -.00086034  00000-0 -15195-2 0  9996,2 53795  53.2170   4.3115 0001595  50.3614 238.6772 15.49977917  8307,6794.928000000001,92.905,417.876,415.709,0.0
53795.0,STARLINK-4742,PAYLOAD,2022-11-03 14:00:01,15.49906426,0.000175,53.2168,3.1177,47.512,197.2791,0.00077745,0.00043955,0.0,0 STARLINK-4742,1 53795U 22111Y   22307.58334491  .00043955  00000-0  77745-3 0  9996,2 53795  53.2168   3.1177 0001750  47.5120 197.2791 15.49906426  1303,6795.137,92.909,418.191,415.812,0.0
